NORAD_CAT_ID,OBJECT_NAME,OBJECT_TYPE,EPOCH,MEAN_MOTION,ECCENTRICITY,INCLINATION,RA_OF_ASC_NODE,ARG_OF_PERICENTER,MEAN_ANOMALY,BSTAR,MEAN_MOTION_DOT,MEAN_MOTION_DDOT,TLE_LINE0,TLE_LINE1,TLE_LINE2,SEMIMAJOR_AXIS,PERIOD,APOGEE,PERIGEE,DECAYED
51463.0,STARLINK-3419,PAYLOAD,2022-12-16 12:49:56,15.08838307,0.0002809,53.216,172.5627,38.8896,321.2298,5.615100000000001e-05,6.05e-06,0.0,0 STARLINK-3419,1 51463U 22010H   22350.53468238  .00000605  00000-0  56151-4 0  9998,2 51463  53.2160 172.5627 0002809  38.8896 321.2298 15.08838307 48506,6917.886,95.438,541.694,537.807,0.0
51463.0,STARLINK-3419,PAYLOAD,2022-12-16 20:46:51,15.08842557,0.0002839,53.216,171.0757,39.0672,321.0525,4.0061e-05,3.49e-06,0.0,0 STARLINK-3419,1 51463U 22010H   22350.86587895  .00000349  00000-0  40061-4 0  9993,2 51463  53.2160 171.0757 0002839  39.0672 321.0525 15.08842557 48550,6917.873000000001,95.437,541.702,537.774,0.0
51463.0,STARLINK-3419,PAYLOAD,2022-12-16 22:22:15,15.08842743,0.0002845,53.216,170.7783,39.1817,320.938,3.911e-05,3.34e-06,0.0,0 STARLINK-3419,1 51463U 22010H   22350.93211862  .00000334  00000-0  39110-4 0  9996,2 51463  53.2160 170.7783 0002845  39.1817 320.9380 15.08842743 49313,6917.871999999999,95.437,541.705,537.769,0.0
51463.0,STARLINK-3419,PAYLOAD,2022-12-17 12:40:43,15.08834367,0.0002856,53.2163,168.1022,40.4672,319.6532,-3.303e-05,-8.14e-06,0.0,0 STARLINK-3419,1 51463U 22010H   22351.52828527 -.00000814  00000-0 -33030-4 0  9994,2 51463  53.2163 168.1022 0002856  40.4672 319.6532 15.08834367 48652,6917.898,95.438,541.738,537.7869999999998,0.0
51463.0,STARLINK-3419,PAYLOAD,2022-12-17 19:02:16,15.08828035,0.0002849,53.2163,166.9128,40.6508,319.4697,1.4971e-05,-5e-07,0.0,0 STARLINK-3419,1 51463U 22010H   22351.79324918 -.00000050  00000-0  14971-4 0  9992,2 51463  53.2163 166.9128 0002849  40.6508 319.4697 15.08828035 49440,6917.917,95.438,541.753,537.811,0.0
51463.0,STARLINK-3419,PAYLOAD,2022-12-18 12:31:31,15.08830436,0.0002796,53.2173,163.6418,43.9305,316.1909,-3.6942e-05,-8.76e-06,0.0,0 STARLINK-3419,1 51463U 22010H   22352.52189461 -.00000876  00000-0 -36942-4 0  9995,2 51463  53.2173 163.6418 0002796  43.9305 316.1909 15.08830436 48806,6917.91,95.438,541.7090000000002,537.84,0.0
51463.0,STARLINK-3419,PAYLOAD,2022-12-18 20:28:27,15.08831566,0.0002827,53.2173,162.155,43.9424,316.1793,-2.8183e-05,-7.37e-06,0.0,0 STARLINK-3419,1 51463U 22010H   22352.85309539 -.00000737  00000-0 -28183-4 0  9995,2 51463  53.2173 162.1550 0002827  43.9424 316.1793 15.08831566 48855,6917.906,95.438,541.727,537.815,0.0
51463.0,STARLINK-3419,PAYLOAD,2022-12-19 20:19:14,15.08835486,0.000286,53.2169,157.694,43.1065,317.015,0.00011374,1.522e-05,0.0,0 STARLINK-3419,1 51463U 22010H   22353.84669334  .00001522  00000-0  11374-3 0  9991,2 51463  53.2169 157.6940 0002860  43.1065 317.0150 15.08835486 49002,6917.894,95.438,541.738,537.781,0.0
51463.0,STARLINK-3419,PAYLOAD,2022-12-20 10:37:42,15.08833404,0.0002853,53.2169,155.0177,44.854,315.2682,0.00011212,1.496e-05,0.0,0 STARLINK-3419,1 51463U 22010H   22354.44285778  .00001496  00000-0  11212-3 0  9995,2 51463  53.2169 155.0177 0002853  44.8540 315.2682 15.08833404 49091,6917.901,95.438,541.739,537.7919999999998,0.0
51463.0,STARLINK-3419,PAYLOAD,2022-12-21 04:06:57,15.08841284,0.0002874,53.2168,151.7466,46.2394,313.8835,0.00011516,1.545e-05,0.0,0 STARLINK-3419,1 51463U 22010H   22355.17149408  .00001545  00000-0  11516-3 0  9997,2 51463  53.2168 151.7466 0002874  46.2394 313.8835 15.08841284 49954,6917.876,95.437,541.73,537.753,0.0
51463.0,STARLINK-3419,PAYLOAD,2022-12-21 10:28:30,15.08825931,0.0002846,53.2168,150.5574,47.8926,312.2307,0.0002066,3e-05,0.0,0 STARLINK-3419,1 51463U 22010H   22355.43646119  .00003000  00000-0  20660-3 0  9995,2 51463  53.2168 150.5574 0002846  47.8926 312.2307 15.08825931 49990,6917.9230000000025,95.438,541.757,537.82,0.0
51463.0,STARLINK-3419,PAYLOAD,2022-12-22 03:57:44,15.0884372,0.0002937,53.217,147.2867,48.4004,311.724,5.9216e-05,6.54e-06,0.0,0 STARLINK-3419,1 51463U 22010H   22356.16509431  .00000654  00000-0  59216-4 0  9993,2 51463  53.2170 147.2867 0002937  48.4004 311.7240 15.08843720 50107,6917.869000000002,95.437,541.766,537.702,0.0
51463.0,STARLINK-3419,PAYLOAD,2022-12-22 16:40:48,15.08850087,0.0002898999999999,53.2163,144.9069,49.2489,310.8754,0.00011212,1.497e-05,0.0,0 STARLINK-3419,1 51463U 22010H   22356.69500598  .00001497  00000-0  11212-3 0  9995,2 51463  53.2163 144.9069 0002899  49.2489 310.8754 15.08850087 50182,6917.85,95.437,541.72,537.7090000000002,0.0
51463.0,STARLINK-3419,PAYLOAD,2022-12-23 10:10:03,15.08837851,0.0002867,53.2162,141.6363,48.2198,311.9038,6.1125e-05,6.84e-06,0.0,0 STARLINK-3419,1 51463U 22010H   22357.42365245  .00000684  00000-0  61125-4 0  9991,2 51463  53.2162 141.6363 0002867  48.2198 311.9038 15.08837851 50296,6917.887,95.438,541.735,537.769,0.0
51463.0,STARLINK-3419,PAYLOAD,2022-12-23 18:06:58,15.08845982,0.0002648999999999,53.2171,140.149,44.0346,316.0856,7.7804e-05,9.5e-06,0.0,0 STARLINK-3419,1 51463U 22010H   22357.75484658  .00000950  00000-0  77804-4 0  9994,2 51463  53.2171 140.1490 0002649  44.0346 316.0856 15.08845982 49597,6917.861999999999,95.437,541.56,537.895,0.0
51463.0,STARLINK-3419,PAYLOAD,2022-12-24 10:00:50,15.08843143,0.0002826,53.216,137.1763,46.59,313.5327,-2.1288e-05,-6.27e-06,0.0,0 STARLINK-3419,1 51463U 22010H   22358.41724968 -.00000627  00000-0 -21288-4 0  9997,2 51463  53.2160 137.1763 0002826  46.5900 313.5327 15.08843143 50442,6917.871,95.437,541.691,537.781,0.0
51463.0,STARLINK-3419,PAYLOAD,2022-12-24 16:22:22,15.08846546,0.0002853,53.2161,135.9865,46.9995,313.1236,8.218e-06,-1.58e-06,0.0,0 STARLINK-3419,1 51463U 22010H   22358.68220561 -.00000158  00000-0  82180-5 0  9993,2 51463  53.2161 135.9865 0002853  46.9995 313.1236 15.08846546 49735,6917.86,95.437,541.6990000000002,537.752,0.0
51463.0,STARLINK-3419,PAYLOAD,2022-12-25 11:27:00,15.08837062,0.0002788999999999,53.2168,132.4176,44.6162,315.5055,-5.5293e-05,-1.168e-05,0.0,0 STARLINK-3419,1 51463U 22010H   22359.47709329 -.00001168  00000-0 -55293-4 0  9992,2 51463  53.2168 132.4176 0002789  44.6162 315.5055 15.08837062 50604,6917.889,95.438,541.684,537.825,0.0
51463.0,STARLINK-3419,PAYLOAD,2022-12-25 16:13:10,15.08834818,0.0002862,53.2169,131.5256,45.1889,314.9335,-7.2603e-05,-1.444e-05,0.0,0 STARLINK-3419,1 51463U 22010H   22359.67581521 -.00001444  00000-0 -72603-4 0  9997,2 51463  53.2169 131.5256 0002862  45.1889 314.9335 15.08834818 49886,6917.896,95.438,541.741,537.781,0.0
51463.0,STARLINK-3419,PAYLOAD,2022-12-26 11:17:48,15.08812671,0.0003117,53.217,127.9569,32.1779,327.9403,0.00042904,6.542e-05,0.0,0 STARLINK-3419,1 51463U 22010H   22360.47069448  .00006542  00000-0  42904-3 0  9998,2 51463  53.2170 127.9569 0003117  32.1779 327.9403 15.08812671 50001,6917.964,95.439,541.985,537.673,0.0
51463.0,STARLINK-3419,PAYLOAD,2022-12-26 17:39:20,15.08827637,0.0003058999999999,53.217,126.7676,37.1562,322.9641,0.00024377,3.592e-05,0.0,0 STARLINK-3419,1 51463U 22010H   22360.73565419  .00003592  00000-0  24377-3 0  9992,2 51463  53.2170 126.7676 0003059  37.1562 322.9641 15.08827637 50790,6917.918000000002,95.438,541.899,537.6669999999998,0.0
51463.0,STARLINK-3419,PAYLOAD,2022-12-27 11:08:33,15.08850744,0.0002805,53.2165,123.4976,44.18,315.9416,0.00010811,1.433e-05,0.0,0 STARLINK-3419,1 51463U 22010H   22361.46428212  .00001433  00000-0  10811-3 0  9992,2 51463  53.2165 123.4976 0002805  44.1800 315.9416 15.08850744 50902,6917.848000000001,95.437,541.653,537.7719999999998,0.0
51463.0,STARLINK-3419,PAYLOAD,2022-12-27 17:30:06,15.08836963,0.0002515,53.2165,122.3083,45.5966,314.5231,0.00033119,4.986e-05,0.0,0 STARLINK-3419,1 51463U 22010H   22361.72924254  .00004986  00000-0  33119-3 0  9990,2 51463  53.2165 122.3083 0002515  45.5966 314.5231 15.08836963 50193,6917.89,95.438,541.495,538.015,0.0
51463.0,STARLINK-3419,PAYLOAD,2022-12-28 10:59:21,15.08844475,0.0002959,53.2178,119.0353,39.5293,320.5915,4.385e-05,4.09e-06,0.0,0 STARLINK-3419,1 51463U 22010H   22362.45788436  .00000409  00000-0  43850-4 0  9991,2 51463  53.2178 119.0353 0002959  39.5293 320.5915 15.08844475 50304,6917.8669999999975,95.437,541.779,537.685,0.0
51463.0,STARLINK-3419,PAYLOAD,2022-12-29 07:39:23,15.08831266,0.0002813999999999,53.2172,115.1698,43.7778,316.3437,-0.00013871,-2.495e-05,0.0,0 STARLINK-3419,1 51463U 22010H   22363.31901947 -.00002495  00000-0 -13871-3 0  9999,2 51463  53.2172 115.1698 0002814  43.7778 316.3437 15.08831266 51185,6917.906999999997,95.438,541.719,537.825,0.0
51463.0,STARLINK-3419,PAYLOAD,2022-12-29 14:00:56,15.08826159,0.0002666,53.2173,113.979,46.4044,313.7169,-0.00017487,-3.07e-05,0.0,0 STARLINK-3419,1 51463U 22010H   22363.58398506 -.00003070  00000-0 -17487-3 0  9996,2 51463  53.2173 113.9790 0002666  46.4044 313.7169 15.08826159 51229,6917.9230000000025,95.438,541.632,537.943,0.0
51463.0,STARLINK-3419,PAYLOAD,2022-12-30 13:51:42,15.08838803,0.0002648999999999,53.2183,109.5231,29.3815,330.7326,6.0518e-05,6.75e-06,0.0,0 STARLINK-3419,1 51463U 22010H   22364.57757458  .00000675  00000-0  60518-4 0  9991,2 51463  53.2183 109.5231 0002649  29.3815 330.7326 15.08838803 51377,6917.884,95.438,541.582,537.9169999999998,0.0
51463.0,STARLINK-3419,PAYLOAD,2022-12-31 13:42:28,15.08845441,0.0002602,53.2175,105.0618,31.3146,328.8001,0.00028895,4.314e-05,0.0,0 STARLINK-3419,1 51463U 22010H   22365.57115917  .00004314  00000-0  28895-3 0  9995,2 51463  53.2175 105.0618 0002602  31.3146 328.8001 15.08845441 51528,6917.864000000001,95.437,541.529,537.929,0.0
51463.0,STARLINK-3419,PAYLOAD,2022-12-31 16:53:15,15.08834901,0.0002665,53.2176,104.467,32.9417,327.1740000000001,0.00019654,2.841e-05,0.0,0 STARLINK-3419,1 51463U 22010H   22365.70364836  .00002841  00000-0  19654-3 0  9992,2 51463  53.2176 104.4670 0002665  32.9417 327.1740 15.08834901 51540,6917.896,95.438,541.605,537.9169999999998,0.0
